CCSDS_OMM_VERS = 2.0
CREATION_DATE  = 
ORIGINATOR     = 

OBJECT_NAME    = DELTA 2 R/B(1)
OBJECT_ID      = 1990-008B
CENTER_NAME    = EARTH
REF_FRAME      = TEME
TIME_SYSTEM    = UTC
MEAN_ELEMENT_THEORY = SGP/SGP4

EPOCH          = 2025-12-20T05:51:12.805344
MEAN_MOTION    = 15.45794805
ECCENTRICITY   = .011115
INCLINATION    = 35.6080
RA_OF_ASC_NODE = 332.0527
ARG_OF_PERICENTER = 246.6814
MEAN_ANOMALY   = 112.2190

EPHEMERIS_TYPE = 0
CLASSIFICATION_TYPE = U
NORAD_CAT_ID   = 20453
ELEMENT_SET_NO = 999
REV_AT_EPOCH   = 91379
BSTAR          = .53658E-3
MEAN_MOTION_DOT = .34193E-3
MEAN_MOTION_DDOT = 0

CCSDS_OMM_VERS = 2.0
CREATION_DATE  = 
ORIGINATOR     = 

OBJECT_NAME    = COSMOS 2058
OBJECT_ID      = 1990-010A
CENTER_NAME    = EARTH
REF_FRAME      = TEME
TIME_SYSTEM    = UTC
MEAN_ELEMENT_THEORY = SGP/SGP4

EPOCH          = 2025-12-20T18:33:54.364896
MEAN_MOTION    = 15.10543852
ECCENTRICITY   = .0009008
INCLINATION    = 82.4699
RA_OF_ASC_NODE = 125.1286
ARG_OF_PERICENTER = 240.8493
MEAN_ANOMALY   = 119.1836

EPHEMERIS_TYPE = 0
CLASSIFICATION_TYPE = U
NORAD_CAT_ID   = 20465
ELEMENT_SET_NO = 999
REV_AT_EPOCH   = 93032
BSTAR          = .21781E-3
MEAN_MOTION_DOT = .3622E-4
MEAN_MOTION_DDOT = 0

CCSDS_OMM_VERS = 2.0
CREATION_DATE  = 
ORIGINATOR     = 

OBJECT_NAME    = SL-14 R/B
OBJECT_ID      = 1990-010B
CENTER_NAME    = EARTH
REF_FRAME      = TEME
TIME_SYSTEM    = UTC
MEAN_ELEMENT_THEORY = SGP/SGP4

EPOCH          = 2025-12-20T10:26:12.410304
MEAN_MOTION    = 14.83477819
ECCENTRICITY   = .0019286
INCLINATION    = 82.5020
RA_OF_ASC_NODE = 341.8195
ARG_OF_PERICENTER = 196.6707
MEAN_ANOMALY   = 163.3877

EPHEMERIS_TYPE = 0
CLASSIFICATION_TYPE = U
NORAD_CAT_ID   = 20466
ELEMENT_SET_NO = 999
REV_AT_EPOCH   = 91673
BSTAR          = .38244617E-4
MEAN_MOTION_DOT = .339E-5
MEAN_MOTION_DDOT = 0

CCSDS_OMM_VERS = 2.0
CREATION_DATE  = 
ORIGINATOR     = 

OBJECT_NAME    = SL-14 R/B
OBJECT_ID      = 1990-018B
CENTER_NAME    = EARTH
REF_FRAME      = TEME
TIME_SYSTEM    = UTC
MEAN_ELEMENT_THEORY = SGP/SGP4

EPOCH          = 2025-12-19T21:41:32.332416
MEAN_MOTION    = 14.82053578
ECCENTRICITY   = .0016383
INCLINATION    = 82.5215
RA_OF_ASC_NODE = 297.6685
ARG_OF_PERICENTER = 0.3373
MEAN_ANOMALY   = 359.7849

EPHEMERIS_TYPE = 0
CLASSIFICATION_TYPE = U
NORAD_CAT_ID   = 20511
ELEMENT_SET_NO = 999
REV_AT_EPOCH   = 91076
BSTAR          = .43412E-4
MEAN_MOTION_DOT = .369E-5
MEAN_MOTION_DDOT = 0

CCSDS_OMM_VERS = 2.0
CREATION_DATE  = 
ORIGINATOR     = 

OBJECT_NAME    = HST
OBJECT_ID      = 1990-037B
CENTER_NAME    = EARTH
REF_FRAME      = TEME
TIME_SYSTEM    = UTC
MEAN_ELEMENT_THEORY = SGP/SGP4

EPOCH          = 2025-12-18T00:24:16.227936
MEAN_MOTION    = 15.28122551
ECCENTRICITY   = .00019512
INCLINATION    = 28.4674
RA_OF_ASC_NODE = 236.5696
ARG_OF_PERICENTER = 306.2349
MEAN_ANOMALY   = 53.8065

EPHEMERIS_TYPE = 0
CLASSIFICATION_TYPE = U
NORAD_CAT_ID   = 20580
ELEMENT_SET_NO = 999
REV_AT_EPOCH   = 76080
BSTAR          = .19113632E-3
MEAN_MOTION_DOT = .5616E-4
MEAN_MOTION_DDOT = 0

CCSDS_OMM_VERS = 2.0
CREATION_DATE  = 
ORIGINATOR     = 

OBJECT_NAME    = SL-16 R/B
OBJECT_ID      = 1990-046B
CENTER_NAME    = EARTH
REF_FRAME      = TEME
TIME_SYSTEM    = UTC
MEAN_ELEMENT_THEORY = SGP/SGP4

EPOCH          = 2025-12-20T15:55:22.932768
MEAN_MOTION    = 14.14998786
ECCENTRICITY   = .0012041
INCLINATION    = 70.9992
RA_OF_ASC_NODE = 103.8815
ARG_OF_PERICENTER = 59.2567
MEAN_ANOMALY   = 300.9740

EPHEMERIS_TYPE = 0
CLASSIFICATION_TYPE = U
NORAD_CAT_ID   = 20625
ELEMENT_SET_NO = 999
REV_AT_EPOCH   = 83721
BSTAR          = -.11703E-3
MEAN_MOTION_DOT = -.274E-5
MEAN_MOTION_DDOT = 0

CCSDS_OMM_VERS = 2.0
CREATION_DATE  = 
ORIGINATOR     = 

OBJECT_NAME    = COSMOS 2084
OBJECT_ID      = 1990-055A
CENTER_NAME    = EARTH
REF_FRAME      = TEME
TIME_SYSTEM    = UTC
MEAN_ELEMENT_THEORY = SGP/SGP4

EPOCH          = 2025-12-20T01:49:18.550560
MEAN_MOTION    = 15.05059399
ECCENTRICITY   = .00305376
INCLINATION    = 62.7898
RA_OF_ASC_NODE = 246.9957
ARG_OF_PERICENTER = 175.6588
MEAN_ANOMALY   = 184.4784

EPHEMERIS_TYPE = 0
CLASSIFICATION_TYPE = U
NORAD_CAT_ID   = 20663
ELEMENT_SET_NO = 999
REV_AT_EPOCH   = 92433
BSTAR          = .13590325E-3
MEAN_MOTION_DOT = .1753E-4
MEAN_MOTION_DDOT = 0

CCSDS_OMM_VERS = 2.0
CREATION_DATE  = 
ORIGINATOR     = 

OBJECT_NAME    = SL-6 R/B(2)
OBJECT_ID      = 1990-055D
CENTER_NAME    = EARTH
REF_FRAME      = TEME
TIME_SYSTEM    = UTC
MEAN_ELEMENT_THEORY = SGP/SGP4

EPOCH          = 2025-12-20T18:00:54.064800
MEAN_MOTION    = 15.03106505
ECCENTRICITY   = .0013583
INCLINATION    = 62.7811
RA_OF_ASC_NODE = 162.1951
ARG_OF_PERICENTER = 314.3324
MEAN_ANOMALY   = 45.6661

EPHEMERIS_TYPE = 0
CLASSIFICATION_TYPE = U
NORAD_CAT_ID   = 20666
ELEMENT_SET_NO = 999
REV_AT_EPOCH   = 92632
BSTAR          = .11641E-3
MEAN_MOTION_DOT = .1382E-4
MEAN_MOTION_DDOT = 0

CCSDS_OMM_VERS = 2.0
CREATION_DATE  = 
ORIGINATOR     = 

OBJECT_NAME    = SL-8 R/B
OBJECT_ID      = 1990-078B
CENTER_NAME    = EARTH
REF_FRAME      = TEME
TIME_SYSTEM    = UTC
MEAN_ELEMENT_THEORY = SGP/SGP4

EPOCH          = 2025-12-20T08:08:58.212960
MEAN_MOTION    = 14.86216440
ECCENTRICITY   = .03707981
INCLINATION    = 82.9048
RA_OF_ASC_NODE = 322.5052
ARG_OF_PERICENTER = 280.3217
MEAN_ANOMALY   = 75.6403

EPHEMERIS_TYPE = 0
CLASSIFICATION_TYPE = U
NORAD_CAT_ID   = 20775
ELEMENT_SET_NO = 999
REV_AT_EPOCH   = 79750
BSTAR          = .41582843E-3
MEAN_MOTION_DOT = .13457E-3
MEAN_MOTION_DDOT = 0

CCSDS_OMM_VERS = 2.0
CREATION_DATE  = 
ORIGINATOR     = 

OBJECT_NAME    = SL-8 R/B
OBJECT_ID      = 1991-006B
CENTER_NAME    = EARTH
REF_FRAME      = TEME
TIME_SYSTEM    = UTC
MEAN_ELEMENT_THEORY = SGP/SGP4

EPOCH          = 2025-12-20T16:02:38.641056
MEAN_MOTION    = 13.77491463
ECCENTRICITY   = .0021176
INCLINATION    = 82.9419
RA_OF_ASC_NODE = 228.8153
ARG_OF_PERICENTER = 256.2346
MEAN_ANOMALY   = 166.2735

EPHEMERIS_TYPE = 0
CLASSIFICATION_TYPE = U
NORAD_CAT_ID   = 21088
ELEMENT_SET_NO = 999
REV_AT_EPOCH   = 75319
BSTAR          = .97467E-4
MEAN_MOTION_DOT = .112E-5
MEAN_MOTION_DDOT = 0

CCSDS_OMM_VERS = 2.0
CREATION_DATE  = 
ORIGINATOR     = 

OBJECT_NAME    = OKEAN-3
OBJECT_ID      = 1991-039A
CENTER_NAME    = EARTH
REF_FRAME      = TEME
TIME_SYSTEM    = UTC
MEAN_ELEMENT_THEORY = SGP/SGP4

EPOCH          = 2025-12-20T15:57:48.688704
MEAN_MOTION    = 15.04167523
ECCENTRICITY   = .0013487
INCLINATION    = 82.5175
RA_OF_ASC_NODE = 53.3770
ARG_OF_PERICENTER = 235.7433
MEAN_ANOMALY   = 124.2517

EPHEMERIS_TYPE = 0
CLASSIFICATION_TYPE = U
NORAD_CAT_ID   = 21397
ELEMENT_SET_NO = 999
REV_AT_EPOCH   = 85315
BSTAR          = .13056E-3
MEAN_MOTION_DOT = .1842E-4
MEAN_MOTION_DDOT = 0

CCSDS_OMM_VERS = 2.0
CREATION_DATE  = 
ORIGINATOR     = 

OBJECT_NAME    = COSMOS 2151
OBJECT_ID      = 1991-042A
CENTER_NAME    = EARTH
REF_FRAME      = TEME
TIME_SYSTEM    = UTC
MEAN_ELEMENT_THEORY = SGP/SGP4

EPOCH          = 2025-12-20T18:19:05.085120
MEAN_MOTION    = 14.99713703
ECCENTRICITY   = .0011891
INCLINATION    = 82.4962
RA_OF_ASC_NODE = 159.7709
ARG_OF_PERICENTER = 331.9191
MEAN_ANOMALY   = 28.1390

EPHEMERIS_TYPE = 0
CLASSIFICATION_TYPE = U
NORAD_CAT_ID   = 21422
ELEMENT_SET_NO = 999
REV_AT_EPOCH   = 85136
BSTAR          = .10378E-3
MEAN_MOTION_DOT = .1309E-4
MEAN_MOTION_DDOT = 0

